{
  "type": "FeatureCollection",
  "features": [
    {
      "type": "Feature",
      "properties": {
        "norad_id": 22490,
        "name": "SCD 1",
        "group": "resource",
        "lat": -22.714329532876917,
        "lon": -169.45505470714167,
        "alt_km": 713.7154129041173,
        "timestamp": "2025-12-08T05:48:08.703913+00:00",
        "meta_object_name": "SCD 1",
        "meta_object_id": "1993-009B",
        "meta_epoch": "2025-12-07T22:11:20.371776",
        "meta_mean_motion": 14.45993289,
        "meta_eccentricity": 0.00417278,
        "meta_inclination": 24.9706,
        "meta_ra_of_asc_node": 308.4115,
        "meta_arg_of_pericenter": 273.8117,
        "meta_mean_anomaly": 117.9422,
        "meta_ephemeris_type": 0,
        "meta_classification_type": "U",
        "meta_norad_cat_id": 22490,
        "meta_element_set_no": 999,
        "meta_rev_at_epoch": 73340,
        "meta_bstar": 0.00015469167,
        "meta_mean_motion_dot": 7.52e-06,
        "meta_mean_motion_ddot": 0,
        "tle_line1": "1 22490U 93009B   25341.92454134  .00000752  00000+0  15469-3 0  9996",
        "tle_line2": "2 22490  24.9706 308.4115 0041727 273.8117 117.9422 14.45993289733406"
      },
      "geometry": {
        "type": "Point",
        "coordinates": [
          -169.45505470714167,
          -22.714329532876917
        ]
      }
    },
    {
      "type": "Feature",
      "properties": {
        "norad_id": 25397,
        "name": "TECHSAT 1B (GO-32)",
        "group": "resource",
        "lat": 22.041913970830805,
        "lon": 149.02550301132354,
        "alt_km": 810.363055529845,
        "timestamp": "2025-12-08T05:48:08.703945+00:00",
        "meta_object_name": "TECHSAT 1B (GO-32)",
        "meta_object_id": "1998-043D",
        "meta_epoch": "2025-12-07T22:19:18.226848",
        "meta_mean_motion": 14.24374862,
        "meta_eccentricity": 0.00021662,
        "meta_inclination": 98.9914,
        "meta_ra_of_asc_node": 325.0312,
        "meta_arg_of_pericenter": 64.9459,
        "meta_mean_anomaly": 295.1944,
        "meta_ephemeris_type": 0,
        "meta_classification_type": "U",
        "meta_norad_cat_id": 25397,
        "meta_element_set_no": 999,
        "meta_rev_at_epoch": 42410,
        "meta_bstar": 8.8595403e-05,
        "meta_mean_motion_dot": 1.58e-06,
        "meta_mean_motion_ddot": 0,
        "tle_line1": "1 25397U 98043D   25341.93007207  .00000158  00000+0  88595-4 0  9995",
        "tle_line2": "2 25397  98.9914 325.0312 0002166  64.9459 295.1944 14.24374862424102"
      },
      "geometry": {
        "type": "Point",
        "coordinates": [
          149.02550301132354,
          22.041913970830805
        ]
      }
    },
    {
      "type": "Feature",
      "properties": {
        "norad_id": 25504,
        "name": "SCD 2",
        "group": "resource",
        "lat": -23.684852292111806,
        "lon": 99.31121647788027,
        "alt_km": 730.266421799568,
        "timestamp": "2025-12-08T05:48:08.703961+00:00",
        "meta_object_name": "SCD 2",
        "meta_object_id": "1998-060A",
        "meta_epoch": "2025-12-07T22:22:24.926016",
        "meta_mean_motion": 14.45418977,
        "meta_eccentricity": 0.00165909,
        "meta_inclination": 24.9932,
        "meta_ra_of_asc_node": 171.541,
        "meta_arg_of_pericenter": 262.1485,
        "meta_mean_anomaly": 211.8207,
        "meta_ephemeris_type": 0,
        "meta_classification_type": "U",
        "meta_norad_cat_id": 25504,
        "meta_element_set_no": 999,
        "meta_rev_at_epoch": 43262,
        "meta_bstar": 0.00011368639,
        "meta_mean_motion_dot": 5.89e-06,
        "meta_mean_motion_ddot": 0,
        "tle_line1": "1 25504U 98060A   25341.93223294  .00000589  00000+0  11369-3 0  9992",
        "tle_line2": "2 25504  24.9932 171.5410 0016590 262.1485 211.8207 14.45418977432623"
      },
      "geometry": {
        "type": "Point",
        "coordinates": [
          99.31121647788027,
          -23.684852292111806
        ]
      }
    },
    {
      "type": "Feature",
      "properties": {
        "norad_id": 25757,
        "name": "DLR-TUBSAT",
        "group": "resource",
        "lat": -73.89423897447189,
        "lon": -1.5419865344944303,
        "alt_km": 723.0306460664051,
        "timestamp": "2025-12-08T05:48:08.703973+00:00",
        "meta_object_name": "DLR-TUBSAT",
        "meta_object_id": "1999-029B",
        "meta_epoch": "2025-12-07T21:53:12.091200",
        "meta_mean_motion": 14.52354641,
        "meta_eccentricity": 0.00136293,
        "meta_inclination": 98.6558,
        "meta_ra_of_asc_node": 326.2768,
        "meta_arg_of_pericenter": 207.9079,
        "meta_mean_anomaly": 152.1385,
        "meta_ephemeris_type": 0,
        "meta_classification_type": "U",
        "meta_norad_cat_id": 25757,
        "meta_element_set_no": 999,
        "meta_rev_at_epoch": 40548,
        "meta_bstar": 7.1887537e-05,
        "meta_mean_motion_dot": 2.44e-06,
        "meta_mean_motion_ddot": 0,
        "tle_line1": "1 25757U 99029B   25341.91194550  .00000244  00000+0  71888-4 0  9999",
        "tle_line2": "2 25757  98.6558 326.2768 0013629 207.9079 152.1385 14.52354641405489"
      },
      "geometry": {
        "type": "Point",
        "coordinates": [
          -1.5419865344944303,
          -73.89423897447189
        ]
      }
    },
    {
      "type": "Feature",
      "properties": {
        "norad_id": 25994,
        "name": "TERRA",
        "group": "resource",
        "lat": -28.582028520488578,
        "lon": -150.28931909176708,
        "alt_km": 696.513385705327,
        "timestamp": "2025-12-08T05:48:08.703985+00:00",
        "meta_object_name": "TERRA",
        "meta_object_id": "1999-068A",
        "meta_epoch": "2025-12-07T22:44:13.839360",
        "meta_mean_motion": 14.60943753,
        "meta_eccentricity": 0.0003519,
        "meta_inclination": 97.9754,
        "meta_ra_of_asc_node": 33.8076,
        "meta_arg_of_pericenter": 107.4946,
        "meta_mean_anomaly": 353.8801,
        "meta_ephemeris_type": 0,
        "meta_classification_type": "U",
        "meta_norad_cat_id": 25994,
        "meta_element_set_no": 999,
        "meta_rev_at_epoch": 38168,
        "meta_bstar": 0.00017800922,
        "meta_mean_motion_dot": 8.27e-06,
        "meta_mean_motion_ddot": 0,
        "tle_line1": "1 25994U 99068A   25341.94738240  .00000827  00000+0  17801-3 0  9999",
        "tle_line2": "2 25994  97.9754  33.8076 0003519 107.4946 353.8801 14.60943753381684"
      },
      "geometry": {
        "type": "Point",
        "coordinates": [
          -150.28931909176708,
          -28.582028520488578
        ]
      }
    },
    {
      "type": "Feature",
      "properties": {
        "norad_id": 27004,
        "name": "MAROC-TUBSAT",
        "group": "resource",
        "lat": -41.95543752558749,
        "lon": -38.322635105285784,
        "alt_km": 995.9846239972376,
        "timestamp": "2025-12-08T05:48:08.703997+00:00",
        "meta_object_name": "MAROC-TUBSAT",
        "meta_object_id": "2001-056D",
        "meta_epoch": "2025-12-08T00:00:54.150336",
        "meta_mean_motion": 13.70252514,
        "meta_eccentricity": 0.00190826,
        "meta_inclination": 99.7912,
        "meta_ra_of_asc_node": 150.3626,
        "meta_arg_of_pericenter": 272.7391,
        "meta_mean_anomaly": 201.1521,
        "meta_ephemeris_type": 0,
        "meta_classification_type": "U",
        "meta_norad_cat_id": 27004,
        "meta_element_set_no": 999,
        "meta_rev_at_epoch": 20000,
        "meta_bstar": 3.046346e-05,
        "meta_mean_motion_dot": -2e-07,
        "meta_mean_motion_ddot": 0,
        "tle_line1": "1 27004U 01056D   25342.00062674 -.00000020  00000+0  30463-4 0  9998",
        "tle_line2": "2 27004  99.7912 150.3626 0019082 272.7391 201.1521 13.70252514200000"
      },
      "geometry": {
        "type": "Point",
        "coordinates": [
          -38.322635105285784,
          -41.95543752558749
        ]
      }
    },
    {
      "type": "Feature",
      "properties": {
        "norad_id": 27424,
        "name": "AQUA",
        "group": "resource",
        "lat": 67.54361507434261,
        "lon": -77.9085199918704,
        "alt_km": 680.3246027139294,
        "timestamp": "2025-12-08T05:48:08.704009+00:00",
        "meta_object_name": "AQUA",
        "meta_object_id": "2002-022A",
        "meta_epoch": "2025-12-07T23:06:08.059392",
        "meta_mean_motion": 14.61791221,
        "meta_eccentricity": 9.429e-05,
        "meta_inclination": 98.4034,
        "meta_ra_of_asc_node": 302.7639,
        "meta_arg_of_pericenter": 114.1471,
        "meta_mean_anomaly": 286.7287,
        "meta_ephemeris_type": 0,
        "meta_classification_type": "U",
        "meta_norad_cat_id": 27424,
        "meta_element_set_no": 999,
        "meta_rev_at_epoch": 25533,
        "meta_bstar": 0.00035411837,
        "meta_mean_motion_dot": 1.718e-05,
        "meta_mean_motion_ddot": 0,
        "tle_line1": "1 27424U 02022A   25341.96259328  .00001718  00000+0  35412-3 0  9998",
        "tle_line2": "2 27424  98.4034 302.7639 0000942 114.1471 286.7287 14.61791221255335"
      },
      "geometry": {
        "type": "Point",
        "coordinates": [
          -77.9085199918704,
          67.54361507434261
        ]
      }
    }
  ]
}